[
    {
        "CCSDS_OMM_VERS": "2.0",
        "COMMENT": "GENERATED VIA SPACE-TRACK.ORG API",
        "CREATION_DATE": "2023-09-09T18:14:14",
        "ORIGINATOR": "18 SPCS",
        "OBJECT_NAME": "TBA - TO BE ASSIGNED",
        "OBJECT_ID": "UNKNOWN",
        "CENTER_NAME": "EARTH",
        "REF_FRAME": "TEME",
        "TIME_SYSTEM": "UTC",
        "MEAN_ELEMENT_THEORY": "SGP4",
        "EPOCH": "2023-09-09T11:47:14.435520",
        "MEAN_MOTION": "12.95380078",
        "ECCENTRICITY": "0.00301182",
        "INCLINATION": "90.2543",
        "RA_OF_ASC_NODE": "343.8206",
        "ARG_OF_PERICENTER": "259.6853",
        "MEAN_ANOMALY": "100.0871",
        "EPHEMERIS_TYPE": "0",
        "CLASSIFICATION_TYPE": "U",
        "NORAD_CAT_ID": "270288",
        "ELEMENT_SET_NO": "999",
        "REV_AT_EPOCH": "16326",
        "BSTAR": "0.00059585374000",
        "MEAN_MOTION_DOT": "0.00000175",
        "MEAN_MOTION_DDOT": "0.0000000000000",
        "SEMIMAJOR_AXIS": "7658.382",
        "PERIOD": "111.164",
        "APOAPSIS": "1303.313",
        "PERIAPSIS": "1257.181",
        "OBJECT_TYPE": "UNKNOWN",
        "RCS_SIZE": null,
        "COUNTRY_CODE": null,
        "LAUNCH_DATE": null,
        "SITE": null,
        "DECAY_DATE": null,
        "FILE": "4001770",
        "GP_ID": "236838779",
        "TLE_LINE0": "0 TBA - TO BE ASSIGNED",
        "TLE_LINE1": "1 T0288U          23252.49113930  .00000175  00000-0  59585-3 0  9990",
        "TLE_LINE2": "2 T0288  90.2543 343.8206 0030118 259.6853 100.0871 12.95380078163268"
    },
    {
        "CCSDS_OMM_VERS": "2.0",
        "COMMENT": "GENERATED VIA SPACE-TRACK.ORG API",
        "CREATION_DATE": "2023-08-25T05:01:29",
        "ORIGINATOR": "18 SPCS",
        "OBJECT_NAME": "TBA - TO BE ASSIGNED",
        "OBJECT_ID": "UNKNOWN",
        "CENTER_NAME": "EARTH",
        "REF_FRAME": "TEME",
        "TIME_SYSTEM": "UTC",
        "MEAN_ELEMENT_THEORY": "SGP4",
        "EPOCH": "2023-08-17T00:24:27.605952",
        "MEAN_MOTION": "12.22276030",
        "ECCENTRICITY": "0.02096841",
        "INCLINATION": "82.4231",
        "RA_OF_ASC_NODE": "129.6412",
        "ARG_OF_PERICENTER": "358.6985",
        "MEAN_ANOMALY": "1.3511",
        "EPHEMERIS_TYPE": "0",
        "CLASSIFICATION_TYPE": "U",
        "NORAD_CAT_ID": "270287",
        "ELEMENT_SET_NO": "999",
        "REV_AT_EPOCH": "14969",
        "BSTAR": "0.01524500800000",
        "MEAN_MOTION_DOT": "0.00001749",
        "MEAN_MOTION_DDOT": "0.0000000000000",
        "SEMIMAJOR_AXIS": "7960.780",
        "PERIOD": "117.813",
        "APOAPSIS": "1749.570",
        "PERIAPSIS": "1415.720",
        "OBJECT_TYPE": "UNKNOWN",
        "RCS_SIZE": null,
        "COUNTRY_CODE": null,
        "LAUNCH_DATE": null,
        "SITE": null,
        "DECAY_DATE": null,
        "FILE": "3988199",
        "GP_ID": "235853646",
        "TLE_LINE0": "0 TBA - TO BE ASSIGNED",
        "TLE_LINE1": "1 T0287U          23229.01698618  .00001749  00000-0  15245-1 0  9993",
        "TLE_LINE2": "2 T0287  82.4231 129.6412 0209684 358.6985   1.3511 12.22276030149692"
    },
    {
        "CCSDS_OMM_VERS": "2.0",
        "COMMENT": "GENERATED VIA SPACE-TRACK.ORG API",
        "CREATION_DATE": "2023-09-11T17:42:44",
        "ORIGINATOR": "18 SPCS",
        "OBJECT_NAME": "TBA - TO BE ASSIGNED",
        "OBJECT_ID": "UNKNOWN",
        "CENTER_NAME": "EARTH",
        "REF_FRAME": "TEME",
        "TIME_SYSTEM": "UTC",
        "MEAN_ELEMENT_THEORY": "SGP4",
        "EPOCH": "2023-09-11T09:37:57.676800",
        "MEAN_MOTION": "12.99640164",
        "ECCENTRICITY": "0.01795927",
        "INCLINATION": "101.8240",
        "RA_OF_ASC_NODE": "143.1310",
        "ARG_OF_PERICENTER": "155.5936",
        "MEAN_ANOMALY": "205.3797",
        "EPHEMERIS_TYPE": "0",
        "CLASSIFICATION_TYPE": "U",
        "NORAD_CAT_ID": "270286",
        "ELEMENT_SET_NO": "999",
        "REV_AT_EPOCH": "16312",
        "BSTAR": "0.00365896350000",
        "MEAN_MOTION_DOT": "0.00001130",
        "MEAN_MOTION_DDOT": "0.0000000000000",
        "SEMIMAJOR_AXIS": "7641.637",
        "PERIOD": "110.800",
        "APOAPSIS": "1400.741",
        "PERIAPSIS": "1126.264",
        "OBJECT_TYPE": "UNKNOWN",
        "RCS_SIZE": null,
        "COUNTRY_CODE": null,
        "LAUNCH_DATE": null,
        "SITE": null,
        "DECAY_DATE": null,
        "FILE": "4003535",
        "GP_ID": "236936088",
        "TLE_LINE0": "0 TBA - TO BE ASSIGNED",
        "TLE_LINE1": "1 T0286U          23254.40136200  .00001130  00000-0  36590-2 0  9998",
        "TLE_LINE2": "2 T0286 101.8240 143.1310 0179593 155.5936 205.3797 12.99640164163123"
    },
    {
        "CCSDS_OMM_VERS": "2.0",
        "COMMENT": "GENERATED VIA SPACE-TRACK.ORG API",
        "CREATION_DATE": "2023-08-25T05:01:29",
        "ORIGINATOR": "18 SPCS",
        "OBJECT_NAME": "TBA - TO BE ASSIGNED",
        "OBJECT_ID": "UNKNOWN",
        "CENTER_NAME": "EARTH",
        "REF_FRAME": "TEME",
        "TIME_SYSTEM": "UTC",
        "MEAN_ELEMENT_THEORY": "SGP4",
        "EPOCH": "2023-08-14T02:35:20.528736",
        "MEAN_MOTION": "13.57176371",
        "ECCENTRICITY": "0.04400452",
        "INCLINATION": "98.8399",
        "RA_OF_ASC_NODE": "358.5807",
        "ARG_OF_PERICENTER": "56.3492",
        "MEAN_ANOMALY": "307.8823",
        "EPHEMERIS_TYPE": "0",
        "CLASSIFICATION_TYPE": "U",
        "NORAD_CAT_ID": "270285",
        "ELEMENT_SET_NO": "999",
        "REV_AT_EPOCH": "15882",
        "BSTAR": "0.02245697100000",
        "MEAN_MOTION_DOT": "0.00030156",
        "MEAN_MOTION_DDOT": "0.0000000000000",
        "SEMIMAJOR_AXIS": "7424.109",
        "PERIOD": "106.103",
        "APOAPSIS": "1372.668",
        "PERIAPSIS": "719.279",
        "OBJECT_TYPE": "UNKNOWN",
        "RCS_SIZE": null,
        "COUNTRY_CODE": null,
        "LAUNCH_DATE": null,
        "SITE": null,
        "DECAY_DATE": null,
        "FILE": "3988199",
        "GP_ID": "235853645",
        "TLE_LINE0": "0 TBA - TO BE ASSIGNED",
        "TLE_LINE1": "1 T0285U          23226.10787649  .00030156  00000-0  22457-1 0  9998",
        "TLE_LINE2": "2 T0285  98.8399 358.5807 0440045  56.3492 307.8823 13.57176371158821"
    },
    {
        "CCSDS_OMM_VERS": "2.0",
        "COMMENT": "GENERATED VIA SPACE-TRACK.ORG API",
        "CREATION_DATE": "2023-09-11T17:42:44",
        "ORIGINATOR": "18 SPCS",
        "OBJECT_NAME": "TBA - TO BE ASSIGNED",
        "OBJECT_ID": "UNKNOWN",
        "CENTER_NAME": "EARTH",
        "REF_FRAME": "TEME",
        "TIME_SYSTEM": "UTC",
        "MEAN_ELEMENT_THEORY": "SGP4",
        "EPOCH": "2023-09-11T14:09:22.539744",
        "MEAN_MOTION": "12.87695164",
        "ECCENTRICITY": "0.02604111",
        "INCLINATION": "82.7141",
        "RA_OF_ASC_NODE": "204.6240",
        "ARG_OF_PERICENTER": "54.8929",
        "MEAN_ANOMALY": "307.6290",
        "EPHEMERIS_TYPE": "0",
        "CLASSIFICATION_TYPE": "U",
        "NORAD_CAT_ID": "270284",
        "ELEMENT_SET_NO": "999",
        "REV_AT_EPOCH": "16099",
        "BSTAR": "0.02114589200000",
        "MEAN_MOTION_DOT": "0.00006220",
        "MEAN_MOTION_DDOT": "0.0000000000000",
        "SEMIMAJOR_AXIS": "7688.822",
        "PERIOD": "111.828",
        "APOAPSIS": "1510.912",
        "PERIAPSIS": "1110.461",
        "OBJECT_TYPE": "UNKNOWN",
        "RCS_SIZE": null,
        "COUNTRY_CODE": null,
        "LAUNCH_DATE": null,
        "SITE": null,
        "DECAY_DATE": null,
        "FILE": "4003535",
        "GP_ID": "236936087",
        "TLE_LINE0": "0 TBA - TO BE ASSIGNED",
        "TLE_LINE1": "1 T0284U          23254.58984421  .00006220  00000-0  21146-1 0  9996",
        "TLE_LINE2": "2 T0284  82.7141 204.6240 0260411  54.8929 307.6290 12.87695164160999"
    },
    {
        "CCSDS_OMM_VERS": "2.0",
        "COMMENT": "GENERATED VIA SPACE-TRACK.ORG API",
        "CREATION_DATE": "2023-09-02T02:12:06",
        "ORIGINATOR": "18 SPCS",
        "OBJECT_NAME": "TBA - TO BE ASSIGNED",
        "OBJECT_ID": "UNKNOWN",
        "CENTER_NAME": "EARTH",
        "REF_FRAME": "TEME",
        "TIME_SYSTEM": "UTC",
        "MEAN_ELEMENT_THEORY": "SGP4",
        "EPOCH": "2023-09-01T21:42:47.153952",
        "MEAN_MOTION": "12.19950657",
        "ECCENTRICITY": "0.03436778",
        "INCLINATION": "82.4250",
        "RA_OF_ASC_NODE": "119.4153",
        "ARG_OF_PERICENTER": "335.3750",
        "MEAN_ANOMALY": "23.1233",
        "EPHEMERIS_TYPE": "0",
        "CLASSIFICATION_TYPE": "U",
        "NORAD_CAT_ID": "270283",
        "ELEMENT_SET_NO": "999",
        "REV_AT_EPOCH": "15269",
        "BSTAR": "-0.07519393700000",
        "MEAN_MOTION_DOT": "-0.00009354",
        "MEAN_MOTION_DDOT": "0.0000000000000",
        "SEMIMAJOR_AXIS": "7970.893",
        "PERIOD": "118.038",
        "APOAPSIS": "1866.700",
        "PERIAPSIS": "1318.816",
        "OBJECT_TYPE": "UNKNOWN",
        "RCS_SIZE": null,
        "COUNTRY_CODE": null,
        "LAUNCH_DATE": null,
        "SITE": null,
        "DECAY_DATE": null,
        "FILE": "3995056",
        "GP_ID": "236348131",
        "TLE_LINE0": "0 TBA - TO BE ASSIGNED",
        "TLE_LINE1": "1 T0283U          23244.90471243 -.00009354  00000-0 -75194-1 0  9998",
        "TLE_LINE2": "2 T0283  82.4250 119.4153 0343678 335.3750  23.1233 12.19950657152699"
    }]